CUTE-1.7+APD II (CO-65) 
1 32785U 08021C   26102.20903986  .00003841  00000+0  24815-3 0  9992
2 32785  97.8247  82.3043 0007199 249.1161 110.9296 15.08840078975240
SEEDS II (CO-66)        
1 32791U 08021J   26101.95271894  .00014033  00000+0  47744-3 0  9997
2 32791  97.7531  96.8107 0003879 144.5833 215.5665 15.30547494977153
YUBILEINY (RS30)        
1 32953U 08025A   26102.26735708  .00000028  00000+0  13069-3 0  9997
2 32953  82.5060  36.4358 0020565  94.0374 266.3057 12.43177509811502
KKS-1 (KISEKI)          
1 33499U 09002H   26102.27072341  .00001007  00000+0  13084-3 0  9992
2 33499  98.1188  23.6797 0008766 136.2129 223.9780 14.82955010926429
SWISSCUBE               
1 35932U 09051B   26102.14289844  .00000776  00000+0  16337-3 0  9990
2 35932  98.4073   8.8760 0008015  62.7116 297.4900 14.62353135879504
BEESAT-1                
1 35933U 09051C   26102.25534057  .00000641  00000+0  13871-3 0  9993
2 35933  98.4001   8.7623 0006556  74.9849 285.2077 14.61612133879559
ITUPSAT1                
1 35935U 09051E   26102.25722927  .00000589  00000+0  13185-3 0  9999
2 35935  98.4089   8.0251 0008785  83.7267 276.4933 14.60340547879116
XIWANG-1 (HOPE-1)       
1 36122U 09072B   26102.27664479 -.00000078  00000+0 -88542-4 0  9995
2 36122 100.3968  57.1796 0007920  28.5029 331.6516 13.16437794784337
O/OREOS (USA 219)       
1 37224U 10062C   26102.09083321  .00002051  00000+0  20039-3 0  9998
2 37224  71.9706 230.0215 0015230 199.5611 160.4977 14.93482069106777
JUGNU                   
1 37839U 11058B   26102.11127425  .00000429  00000+0  84547-4 0  9995
2 37839  19.9624 349.8559 0018587  67.0880  90.4073 14.13756394749662
SRMSAT                  
1 37841U 11058D   26102.33085296  .00000376  00000+0  59934-4 0  9994
2 37841  19.9713  98.0792 0011714 198.3805 189.8251 14.11559813748504
STRAND-1                
1 39090U 13009E   26102.26256295  .00000243  00000+0  95972-4 0  9996
2 39090  98.3911 284.1231 0009781  71.3276 288.8972 14.37124193687590
ZACUBE-1 (TSHEPISOSAT)  
1 39417U 13066B   26102.14019248  .00003335  00000+0  26297-3 0  9992
2 39417  97.8126  64.1276 0045029 111.9043 248.6977 15.00655092670823
GOMX-1                  
1 39430U 13066Q   26102.26507763  .00001181  00000+0  18506-3 0  9995
2 39430  97.6542 306.8740 0127727 289.5676  69.1777 14.69227601660233
CUBEBUG-2 (LO-74)       
1 39440U 13066AA  26102.27147080  .00003097  00000+0  29228-3 0  9990
2 39440  97.8854  51.0173 0056453 245.3027 114.2308 14.93323897667159
FUNCUBE-1 (AO-73)       
1 39444U 13066AE  26101.87988950  .00006631  00000+0  42145-3 0  9998
2 39444  97.8222  72.0086 0038794  70.5768 289.9646 15.08552924669661
UWE-3                   
1 39446U 13066AG  26102.29872676  .00002990  00000+0  26201-3 0  9993
2 39446  97.8652  57.9811 0049434 176.9941 183.1587 14.96522339667722
UNISAT-6                
1 40012U 14033C   26102.16716787  .00002263  00000+0  24916-3 0  9999
2 40012  97.7789 256.0899 0043965 286.4240  73.2146 14.87868721636345
DUCHIFAT-1              
1 40021U 14033M   26102.09687634  .00053249  00000+0  80753-3 0  9990
2 40021  98.0567 152.5716 0002868 300.2250  59.8717 15.54454895645458
QB50P1                  
1 40025U 14033R   26102.28681569  .00006009  00000+0  30541-3 0  9998
2 40025  98.1001 108.8603 0010746  92.4612 267.7850 15.17238634643031
LILACSAT-2              
1 40908U 15049K   26102.24331543  .00011926  00000+0  21928-3 0  9999
2 40908  97.4754 136.6535 0008794 125.3494 234.8580 15.49330248585539
FOX-1A (AO-85)          
1 40967U 15058D   26102.27507674  .00001571  00000+0  15256-3 0  9999
2 40967  64.7739 123.7532 0128354  82.4599 279.1073 14.90576367103749
CAS-2T & KS-1Q          
1 41847U 16066G   26102.16230260  .00000498  00000+0  79782-4 0  9991
2 41847  98.3841 178.6407 0341630 330.0718  28.1319 14.44552122495261
RADFXSAT (FOX-1B)       
1 43017U 17073E   26102.09933919  .00006905  00000+0  30941-3 0  9996
2 43017  97.4813 330.6958 0153203 196.0485 163.5864 15.11568722455409
DIWATA-2B               
1 43678U 18084H   26102.27515854  .00001826  00000+0  15128-3 0  9993
2 43678  98.1051 295.6936 0013923  28.9701 331.2291 15.00139222406331
ES'HAIL 2               
1 43700U 18090A   26102.16755089  .00000146  00000+0  00000+0 0  9993
2 43700   0.0165 124.5441 0001224 275.4594 246.4763  1.00271003 27010
FOX-1CLIFF (AO-95)      
1 43770U 18099N   26102.11025684  .00009245  00000+0  36932-3 0  9991
2 43770  97.4446 162.6546 0008372 211.1749 148.8993 15.25324795403149
ITASAT                  
1 43786U 18099AE  26102.13018678  .00004991  00000+0  24673-3 0  9997
2 43786  97.4104 154.9799 0011906 216.5086 143.5337 15.18229992402880
JY1SAT (JO-97)          
1 43803U 18099AX  26102.15115726  .00012673  00000+0  41703-3 0  9990
2 43803  97.4190 164.8449 0007181 138.4471 221.7317 15.31623659403518
UWE-4                   
1 43880U 18111E   26102.24329441  .00018832  00000+0  43820-3 0  9996
2 43880  97.5848  27.8081 0007997 182.9655 177.1546 15.42323218400602
TIANYAN 01              
1 44881U 19093C   26102.27780495  .00000601  00000+0  74060-4 0  9997
2 44881  97.7557 176.1121 0012429 308.0208  51.9885 14.86414457341621
RS-44 & BREEZE-KM R/B   
1 44909U 19096E   26102.25498312  .00000006  00000+0 -12852-4 0  9994
2 44909  82.5262  23.5140 0216539 298.7298  59.2197 12.79747967293915
SALSAT                  
1 46495U 20068K   26102.25638437  .00005336  00000+0  19312-3 0  9998
2 46495  97.8865 101.3592 0010415 163.7754 196.3820 15.28842849305286
XW-3 (CAS-9)            
1 50466U 21131B   26102.31312983  .00000447  00000+0  15198-3 0  9991
2 50466  98.4941 195.0724 0002992 305.7207  54.3703 14.41294803225627
GREENCUBE (IO-117)      
1 53109U 22080E   26100.94937143 -.00000003  00000+0  00000+0 0  9991
2 53109  70.1502 321.6403 0008985 304.6549  55.3263  6.42583261 87742
UMKA 1 (RS40S)          
1 57172U 23091G   26102.28115807  .00003881  00000+0  18261-3 0  9990
2 57172  97.5115 161.2489 0012524 356.9975   3.1182 15.20099646153995
CUBESX-HSE 3 (RS42S)    
1 57178U 23091N   26102.26491288  .00008703  00000+0  30527-3 0  9991
2 57178  97.5147 167.0874 0009901 331.9251  28.1454 15.29638555154349
MONITOR-3 (RS58S)       
1 57180U 23091Q   26102.21681702  .00006490  00000+0  25048-3 0  9994
2 57180  97.5142 165.2281 0010964 338.8703  21.2081 15.26582317154226
MONITOR-4 (RS57S)       
1 57182U 23091S   26102.26552734  .00006961  00000+0  26768-3 0  9996
2 57182  97.5136 165.2439 0010934 339.1803  20.8988 15.26676945154231
MONITOR-2 (RS39S)       
1 57184U 23091U   26102.22278952  .00003351  00000+0  16644-3 0  9993
2 57184  97.5138 160.9416 0010764 350.5139   9.5890 15.18323732153949
SVYATOBOR 1 (RS60S)     
1 57187U 23091X   26102.29147963  .00005535  00000+0  22100-3 0  9990
2 57187  97.5148 165.7831 0008473 332.0262  28.0519 15.25540646154266
VIZARD-METEO (RS38S)    
1 57189U 23091Z   26102.24010437  .00010142  00000+0  31023-3 0  9996
2 57189  97.5139 170.4970 0006062 309.9913  50.0796 15.34032983154579
NANOZOND 1 (RS49S)      
1 57190U 23091AA  26102.26407837  .00847119  36099-3  13744-2 0  9996
2 57190  97.4933 185.7485 0010023 261.1452  98.8693 16.03380730155593
POLYTECH-UNIVERSE 3 (R*)
1 57191U 23091AB  26102.25859512  .00003312  00000+0  16338-3 0  9998
2 57191  97.5114 160.4829 0015523   5.0854 355.0535 15.18518523153947
UTMN 2 (RS27S)          
1 57203U 23091AP  26102.25405850  .00008606  00000+0  29421-3 0  9992
2 57203  97.5139 168.6287 0006926 319.0483  41.0237 15.30505986154450
KUZGTU 1 (RS47S)        
1 57217U 23091AV  26102.26643977  .00007872  00000+0  28680-3 0  9992
2 57217  97.5121 166.1347 0010161 335.9745  24.1019 15.28425732154301
SONATE-2                
1 59112U 24043Q   26101.84858785  .00028954  00000+0  44527-3 0  9996
2 59112  97.5450 248.4550 0007521  89.3606 270.8510 15.54169095117574
MESAT1                  
1 60209U 24125G   26102.02927361  .00037291  00000+0  51561-3 0  9994
2 60209  97.2409 318.2975 0012608 103.4144 256.8518 15.56957888 99251
OOV-CUBE (TUBSAT-30)    
1 60240U 24128F   26102.24097361  .00001522  00000+0  12693-3 0  9995
2 60240  61.9935  95.4660 0051733 119.3060 241.3214 15.02455065 96203
COLIBRI-S (RS67S)       
1 61746U 24199M   26102.25001825  .00015306  00000+0  32474-3 0  9990
2 61746  97.3102 335.6035 0009942 150.3341 209.8474 15.45089907127220
HORS 3 (RS81S)          
1 61753U 24199U   26102.29091455  .00021255  00000+0  36948-3 0  9990
2 61753  97.3079 337.0064 0008254 150.6835 209.4882 15.50795184127333
HORS 4 (RS82S)          
1 61754U 24199V   26102.29172899  .00027139  00000+0  41680-3 0  9999
2 61754  97.3040 337.8495 0007833 145.5877 214.5885 15.54212926127397
HORIZON (RS59S)         
1 61757U 24199Y   26102.27106477  .00208700  00000+0  94458-3 0  9995
2 61757  97.2968 342.8508 0006723 133.4808 226.7021 15.83376649127714
ARCTICSAT 1 (RS74S)     
1 61762U 24199AD  26102.16322568  .00108472  00000+0  74374-3 0  9990
2 61762  97.3005 341.9456 0007013 128.0265 232.1634 15.74371511127641
SIT-2086                
1 61764U 24199AF  26102.25949422  .00016618  00000+0  30345-3 0  9996
2 61764  97.3067 337.6501 0007680 139.9990 220.1828 15.49451675124214
HYPERVIEW 1G (RS66S)    
1 61772U 24199AP  26102.29354446  .00053810  00000+0  58482-3 0  9992
2 61772  97.3014 339.3524 0009019 146.0216 214.1622 15.63265908124344
ALTAIR (RS65S)          
1 61779U 24199AW  26102.26539471  .00008136  00000+0  23514-3 0  9998
2 61779  97.3131 332.0780 0013250 175.4117 184.7251 15.35816746126997
ASRTU-1 (AO-123)        
1 61781U 24199AY  26102.26668441  .00005661  00000+0  17007-3 0  9991
2 61781  97.3103 331.5437 0014123 178.2408 181.8887 15.34725541123818
TUSUR GO (RS78S)        
1 61782U 24199AZ  26101.93738719  .00275847  00000+0  10844-2 0  9997
2 61782  97.2903 341.5578 0007168 144.5177 215.6572 15.86179156124464
